STARLINK-36899          
1 68058U 26041U   26066.16670139 -.01469305  67775-3 -26197-2 0  9995
2 68058  53.1601  75.1458 0000444  75.7902 305.0982 16.01198498  1978
STARLINK-36917          
1 68059U 26041V   26066.16670139 -.01467405  67717-3 -25957-2 0  9994
2 68059  53.1599  75.1429 0000517  81.5365 300.8117 16.01334017  1974
STARLINK-36959          
1 68060U 26041W   26066.16670139 -.01446125  65998-3 -25431-2 0  9998
2 68060  53.1599  75.1401 0000474  70.5952 312.8713 16.01431304  1970
STARLINK-36915          
1 68061U 26041X   26066.16670139 -.01461432  67380-3 -25514-2 0  9996
2 68061  53.1600  75.1376 0000449  83.2524 301.4876 16.01558805  1973
STARLINK-36952          
1 68062U 26041Y   26066.16670139 -.01442812  65902-3 -25010-2 0  9997
2 68062  53.1601  75.1350 0000517  76.5162 309.6005 16.01678044  1978
STARLINK-37000          
1 68063U 26041Z   26066.16670139 -.01456815  67184-3 -25050-2 0  9994
2 68063  53.1600  75.1318 0000488  76.4209 311.0857 16.01817964  1978
STARLINK-36996          
1 68064U 26041AA  26066.16670139 -.01464954  67979-3 -24989-2 0  9990
2 68064  53.1600  75.1290 0000454  75.6256 313.2970 16.01956194  1973
STARLINK-36836          
1 68065U 26041AB  26066.16670139 -.01451610  67025-3 -24418-2 0  9995
2 68065  53.1600  75.1236 0000369  83.9552 307.5075 16.02191637  1976
STARLINK-36976          
1 68066U 26041AC  26066.16670139 -.01449061  66906-3 -24190-2 0  9997
2 68066  53.1599  75.1208 0000476  74.8413 317.9764 16.02320837  1973
STARLINK-36929          
1 68067U 26041AD  26066.16670139 -.01456127  67328-3 -24647-2 0  9995
2 68067  53.1600  75.1260 0000504  70.1414 320.1595 16.02086219  1978
STARLINK-36990          
1 68068U 26041AE  26066.16670139 -.01425508  65025-3 -23604-2 0  9999
2 68068  53.1599  75.1178 0000497  68.1133 326.2038 16.02454622  1976
GLOBAL-34               
1 68098U 26043A   26066.19207866  .00012899  00000+0  42333-3 0  9991
2 68098  42.0209  89.9145 0006998 277.5422  82.4620 15.31412175   188
ELECTRON R/B            
1 68099U 26043B   26066.15481351  .02161137  73234-5  13998-2 0  9992
2 68099  42.0153  89.5740 0209370 274.6570  83.0403 15.83980663   180
