[{"OBJECT_NAME":"STARLINK-36899","OBJECT_ID":"2026-041U","EPOCH":"2026-03-07T04:00:03.000096","MEAN_MOTION":16.01198498,"ECCENTRICITY":4.44e-5,"INCLINATION":53.1601,"RA_OF_ASC_NODE":75.1458,"ARG_OF_PERICENTER":75.7902,"MEAN_ANOMALY":305.0982,"EPHEMERIS_TYPE":0,"CLASSIFICATION_TYPE":"U","NORAD_CAT_ID":68058,"ELEMENT_SET_NO":999,"REV_AT_EPOCH":197,"BSTAR":-0.0026197,"MEAN_MOTION_DOT":-0.01469305,"MEAN_MOTION_DDOT":0.00067775},{"OBJECT_NAME":"STARLINK-36917","OBJECT_ID":"2026-041V","EPOCH":"2026-03-07T04:00:03.000096","MEAN_MOTION":16.01334017,"ECCENTRICITY":5.17e-5,"INCLINATION":53.1599,"RA_OF_ASC_NODE":75.1429,"ARG_OF_PERICENTER":81.5365,"MEAN_ANOMALY":300.8117,"EPHEMERIS_TYPE":0,"CLASSIFICATION_TYPE":"U","NORAD_CAT_ID":68059,"ELEMENT_SET_NO":999,"REV_AT_EPOCH":197,"BSTAR":-0.0025957,"MEAN_MOTION_DOT":-0.01467405,"MEAN_MOTION_DDOT":0.00067717},{"OBJECT_NAME":"STARLINK-36959","OBJECT_ID":"2026-041W","EPOCH":"2026-03-07T04:00:03.000096","MEAN_MOTION":16.01431304,"ECCENTRICITY":4.74e-5,"INCLINATION":53.1599,"RA_OF_ASC_NODE":75.1401,"ARG_OF_PERICENTER":70.5952,"MEAN_ANOMALY":312.8713,"EPHEMERIS_TYPE":0,"CLASSIFICATION_TYPE":"U","NORAD_CAT_ID":68060,"ELEMENT_SET_NO":999,"REV_AT_EPOCH":197,"BSTAR":-0.0025431,"MEAN_MOTION_DOT":-0.01446125,"MEAN_MOTION_DDOT":0.00065998},{"OBJECT_NAME":"STARLINK-36915","OBJECT_ID":"2026-041X","EPOCH":"2026-03-07T04:00:03.000096","MEAN_MOTION":16.01558805,"ECCENTRICITY":4.49e-5,"INCLINATION":53.16,"RA_OF_ASC_NODE":75.1376,"ARG_OF_PERICENTER":83.2524,"MEAN_ANOMALY":301.4876,"EPHEMERIS_TYPE":0,"CLASSIFICATION_TYPE":"U","NORAD_CAT_ID":68061,"ELEMENT_SET_NO":999,"REV_AT_EPOCH":197,"BSTAR":-0.0025514,"MEAN_MOTION_DOT":-0.01461432,"MEAN_MOTION_DDOT":0.0006738},{"OBJECT_NAME":"STARLINK-36952","OBJECT_ID":"2026-041Y","EPOCH":"2026-03-07T04:00:03.000096","MEAN_MOTION":16.01678044,"ECCENTRICITY":5.17e-5,"INCLINATION":53.1601,"RA_OF_ASC_NODE":75.135,"ARG_OF_PERICENTER":76.5162,"MEAN_ANOMALY":309.6005,"EPHEMERIS_TYPE":0,"CLASSIFICATION_TYPE":"U","NORAD_CAT_ID":68062,"ELEMENT_SET_NO":999,"REV_AT_EPOCH":197,"BSTAR":-0.002501,"MEAN_MOTION_DOT":-0.01442812,"MEAN_MOTION_DDOT":0.00065902},{"OBJECT_NAME":"STARLINK-37000","OBJECT_ID":"2026-041Z","EPOCH":"2026-03-07T04:00:03.000096","MEAN_MOTION":16.01817964,"ECCENTRICITY":4.88e-5,"INCLINATION":53.16,"RA_OF_ASC_NODE":75.1318,"ARG_OF_PERICENTER":76.4209,"MEAN_ANOMALY":311.0857,"EPHEMERIS_TYPE":0,"CLASSIFICATION_TYPE":"U","NORAD_CAT_ID":68063,"ELEMENT_SET_NO":999,"REV_AT_EPOCH":197,"BSTAR":-0.002505,"MEAN_MOTION_DOT":-0.01456815,"MEAN_MOTION_DDOT":0.00067184},{"OBJECT_NAME":"STARLINK-36996","OBJECT_ID":"2026-041AA","EPOCH":"2026-03-07T04:00:03.000096","MEAN_MOTION":16.01956194,"ECCENTRICITY":4.54e-5,"INCLINATION":53.16,"RA_OF_ASC_NODE":75.129,"ARG_OF_PERICENTER":75.6256,"MEAN_ANOMALY":313.297,"EPHEMERIS_TYPE":0,"CLASSIFICATION_TYPE":"U","NORAD_CAT_ID":68064,"ELEMENT_SET_NO":999,"REV_AT_EPOCH":197,"BSTAR":-0.0024989,"MEAN_MOTION_DOT":-0.01464954,"MEAN_MOTION_DDOT":0.00067979},{"OBJECT_NAME":"STARLINK-36836","OBJECT_ID":"2026-041AB","EPOCH":"2026-03-07T04:00:03.000096","MEAN_MOTION":16.02191637,"ECCENTRICITY":3.69e-5,"INCLINATION":53.16,"RA_OF_ASC_NODE":75.1236,"ARG_OF_PERICENTER":83.9552,"MEAN_ANOMALY":307.5075,"EPHEMERIS_TYPE":0,"CLASSIFICATION_TYPE":"U","NORAD_CAT_ID":68065,"ELEMENT_SET_NO":999,"REV_AT_EPOCH":197,"BSTAR":-0.0024418,"MEAN_MOTION_DOT":-0.0145161,"MEAN_MOTION_DDOT":0.00067025},{"OBJECT_NAME":"STARLINK-36976","OBJECT_ID":"2026-041AC","EPOCH":"2026-03-07T04:00:03.000096","MEAN_MOTION":16.02320837,"ECCENTRICITY":4.76e-5,"INCLINATION":53.1599,"RA_OF_ASC_NODE":75.1208,"ARG_OF_PERICENTER":74.8413,"MEAN_ANOMALY":317.9764,"EPHEMERIS_TYPE":0,"CLASSIFICATION_TYPE":"U","NORAD_CAT_ID":68066,"ELEMENT_SET_NO":999,"REV_AT_EPOCH":197,"BSTAR":-0.002419,"MEAN_MOTION_DOT":-0.01449061,"MEAN_MOTION_DDOT":0.00066906},{"OBJECT_NAME":"STARLINK-36929","OBJECT_ID":"2026-041AD","EPOCH":"2026-03-07T04:00:03.000096","MEAN_MOTION":16.02086219,"ECCENTRICITY":5.04e-5,"INCLINATION":53.16,"RA_OF_ASC_NODE":75.126,"ARG_OF_PERICENTER":70.1414,"MEAN_ANOMALY":320.1595,"EPHEMERIS_TYPE":0,"CLASSIFICATION_TYPE":"U","NORAD_CAT_ID":68067,"ELEMENT_SET_NO":999,"REV_AT_EPOCH":197,"BSTAR":-0.0024647,"MEAN_MOTION_DOT":-0.01456127,"MEAN_MOTION_DDOT":0.00067328},{"OBJECT_NAME":"STARLINK-36990","OBJECT_ID":"2026-041AE","EPOCH":"2026-03-07T04:00:03.000096","MEAN_MOTION":16.02454622,"ECCENTRICITY":4.97e-5,"INCLINATION":53.1599,"RA_OF_ASC_NODE":75.1178,"ARG_OF_PERICENTER":68.1133,"MEAN_ANOMALY":326.2038,"EPHEMERIS_TYPE":0,"CLASSIFICATION_TYPE":"U","NORAD_CAT_ID":68068,"ELEMENT_SET_NO":999,"REV_AT_EPOCH":197,"BSTAR":-0.0023604,"MEAN_MOTION_DOT":-0.01425508,"MEAN_MOTION_DDOT":0.00065025},{"OBJECT_NAME":"GLOBAL-34","OBJECT_ID":"2026-043A","EPOCH":"2026-03-07T04:36:35.596224","MEAN_MOTION":15.31412175,"ECCENTRICITY":0.0006998,"INCLINATION":42.0209,"RA_OF_ASC_NODE":89.9145,"ARG_OF_PERICENTER":277.5422,"MEAN_ANOMALY":82.462,"EPHEMERIS_TYPE":0,"CLASSIFICATION_TYPE":"U","NORAD_CAT_ID":68098,"ELEMENT_SET_NO":999,"REV_AT_EPOCH":18,"BSTAR":0.00042333,"MEAN_MOTION_DOT":0.00012899,"MEAN_MOTION_DDOT":0},{"OBJECT_NAME":"ELECTRON R/B","OBJECT_ID":"2026-043B","EPOCH":"2026-03-07T03:42:55.887264","MEAN_MOTION":15.83980663,"ECCENTRICITY":0.020937,"INCLINATION":42.0153,"RA_OF_ASC_NODE":89.574,"ARG_OF_PERICENTER":274.657,"MEAN_ANOMALY":83.0403,"EPHEMERIS_TYPE":0,"CLASSIFICATION_TYPE":"U","NORAD_CAT_ID":68099,"ELEMENT_SET_NO":999,"REV_AT_EPOCH":18,"BSTAR":0.0013998,"MEAN_MOTION_DOT":0.02161137,"MEAN_MOTION_DDOT":7.3234e-6}]
